{"type": "FeatureCollection", "features": [ {"type": "Feature", "properties": {"norad_id": 66657, "name": "SPIRONE", "group": "last-30-days", "lat": -24.289684064340808, "lon": -88.9277070959596, "alt_km": 589.6603452635072, "timestamp": "2025-12-06T05:40:08.013061+00:00", "meta": {"OBJECT_NAME": "SPIRONE", "OBJECT_ID": "2025-274H", "EPOCH": "2025-12-05T07:15:00.922464", "MEAN_MOTION": 14.92384278, "ECCENTRICITY": 0.00110607, "INCLINATION": 97.7387, "RA_OF_ASC_NODE": 266.636, "ARG_OF_PERICENTER": 304.7015, "MEAN_ANOMALY": 55.3162, "EPHEMERIS_TYPE": 0, "CLASSIFICATION_TYPE": "U", "NORAD_CAT_ID": 66657, "ELEMENT_SET_NO": 999, "REV_AT_EPOCH": 129, "BSTAR": 0.00060861124, "MEAN_MOTION_DOT": 6.182e-05, "MEAN_MOTION_DDOT": 0}, "tle": {"line1": "1 66657U 25274H   25339.30209401  .00006182  00000+0  60861-3 0  9991", "line2": "2 66657  97.7387 266.6360 0011060 304.7015  55.3162 14.92384278  1292"}}, "geometry": {"type": "Point", "coordinates": [-88.9277070959596, -24.289684064340808]}}, {"type": "Feature", "properties": {"norad_id": 66658, "name": "2025-274J", "group": "last-30-days", "lat": -18.32482675972133, "lon": -89.8620676487573, "alt_km": 588.5570562239118, "timestamp": "2025-12-06T05:40:08.013074+00:00", "meta": {"OBJECT_NAME": "2025-274J", "OBJECT_ID": "2025-274J", "EPOCH": "2025-12-05T07:13:33.345696", "MEAN_MOTION": 14.92557518, "ECCENTRICITY": 0.00116162, "INCLINATION": 97.7389, "RA_OF_ASC_NODE": 266.6374, "ARG_OF_PERICENTER": 307.5835, "MEAN_ANOMALY": 52.4328, "EPHEMERIS_TYPE": 0, "CLASSIFICATION_TYPE": "U", "NORAD_CAT_ID": 66658, "ELEMENT_SET_NO": 999, "REV_AT_EPOCH": 129, "BSTAR": 0.0005786355, "MEAN_MOTION_DOT": 5.901e-05, "MEAN_MOTION_DDOT": 0}, "tle": {"line1": "1 66658U 25274J   25339.30108039  .00005901  00000+0  57864-3 0  9994", "line2": "2 66658  97.7389 266.6374 0011616 307.5835  52.4328 14.92557518  1299"}}, "geometry": {"type": "Point", "coordinates": [-89.8620676487573, -18.32482675972133]}}, {"type": "Feature", "properties": {"norad_id": 66659, "name": "JACK K", "group": "last-30-days", "lat": -11.961426303859055, "lon": -90.78990082379357, "alt_km": 587.3928335332093, "timestamp": "2025-12-06T05:40:08.013084+00:00", "meta": {"OBJECT_NAME": "JACK K", "OBJECT_ID": "2025-274K", "EPOCH": "2025-12-04T08:40:38.250048", "MEAN_MOTION": 14.92734551, "ECCENTRICITY": 0.0012354, "INCLINATION": 97.7386, "RA_OF_ASC_NODE": 265.7163, "ARG_OF_PERICENTER": 312.2173, "MEAN_ANOMALY": 47.7997, "EPHEMERIS_TYPE": 0, "CLASSIFICATION_TYPE": "U", "NORAD_CAT_ID": 66659, "ELEMENT_SET_NO": 999, "REV_AT_EPOCH": 115, "BSTAR": 0.00069302, "MEAN_MOTION_DOT": 7.113e-05, "MEAN_MOTION_DDOT": 0}, "tle": {"line1": "1 66659U 25274K   25338.36155382  .00007113  00000+0  69302-3 0  9990", "line2": "2 66659  97.7386 265.7163 0012354 312.2173  47.7997 14.92734551  1159"}}, "geometry": {"type": "Point", "coordinates": [-90.78990082379357, -11.961426303859055]}}, {"type": "Feature", "properties": {"norad_id": 66660, "name": "K-HERO", "group": "last-30-days", "lat": -6.894809928990128, "lon": -91.49549462267638, "alt_km": 586.6290928234084, "timestamp": "2025-12-06T05:40:08.013094+00:00", "meta": {"OBJECT_NAME": "K-HERO", "OBJECT_ID": "2025-274L", "EPOCH": "2025-12-05T07:10:46.013088", "MEAN_MOTION": 14.92891926, "ECCENTRICITY": 0.00129657, "INCLINATION": 97.7394, "RA_OF_ASC_NODE": 266.6407, "ARG_OF_PERICENTER": 309.2025, "MEAN_ANOMALY": 50.8042, "EPHEMERIS_TYPE": 0, "CLASSIFICATION_TYPE": "U", "NORAD_CAT_ID": 66660, "ELEMENT_SET_NO": 999, "REV_AT_EPOCH": 129, "BSTAR": 0.00053497482, "MEAN_MOTION_DOT": 5.499e-05, "MEAN_MOTION_DDOT": 0}, "tle": {"line1": "1 66660U 25274L   25339.29914367  .00005499  00000+0  53497-3 0  9994", "line2": "2 66660  97.7394 266.6407 0012965 309.2025  50.8042 14.92891926  1292"}}, "geometry": {"type": "Point", "coordinates": [-91.49549462267638, -6.894809928990128]}}, {"type": "Feature", "properties": {"norad_id": 66661, "name": "SNUGLITE-III", "group": "last-30-days", "lat": -1.6673791967107967, "lon": -92.20918790013005, "alt_km": 585.7625826489511, "timestamp": "2025-12-06T05:40:08.013104+00:00", "meta": {"OBJECT_NAME": "SNUGLITE-III", "OBJECT_ID": "2025-274M", "EPOCH": "2025-12-05T07:09:29.397024", "MEAN_MOTION": 14.93041442, "ECCENTRICITY": 0.00136355, "INCLINATION": 97.7392, "RA_OF_ASC_NODE": 266.6414, "ARG_OF_PERICENTER": 310.0704, "MEAN_ANOMALY": 49.9319, "EPHEMERIS_TYPE": 0, "CLASSIFICATION_TYPE": "U", "NORAD_CAT_ID": 66661, "ELEMENT_SET_NO": 999, "REV_AT_EPOCH": 129, "BSTAR": 0.00051687706, "MEAN_MOTION_DOT": 5.332e-05, "MEAN_MOTION_DDOT": 0}, "tle": {"line1": "1 66661U 25274M   25339.29825691  .00005332  00000+0  51688-3 0  9992", "line2": "2 66661  97.7392 266.6414 0013635 310.0704  49.9319 14.93041442  1295"}}, "geometry": {"type": "Point", "coordinates": [-92.20918790013005, -1.6673791967107967]}}, {"type": "Feature", "properties": {"norad_id": 66662, "name": "2025-274N", "group": "last-30-days", "lat": 0.5290036160061509, "lon": -92.50702473779683, "alt_km": 585.5475127365853, "timestamp": "2025-12-06T05:40:08.013116+00:00", "meta": {"OBJECT_NAME": "2025-274N", "OBJECT_ID": "2025-274N", "EPOCH": "2025-12-05T07:08:56.610816", "MEAN_MOTION": 14.9309478, "ECCENTRICITY": 0.00140544, "INCLINATION": 97.739, "RA_OF_ASC_NODE": 266.6419, "ARG_OF_PERICENTER": 309.3021, "MEAN_ANOMALY": 50.6951, "EPHEMERIS_TYPE": 0, "CLASSIFICATION_TYPE": "U", "NORAD_CAT_ID": 66662, "ELEMENT_SET_NO": 999, "REV_AT_EPOCH": 129, "BSTAR": 0.00033972357, "MEAN_MOTION_DOT": 3.489e-05, "MEAN_MOTION_DDOT": 0}, "tle": {"line1": "1 66662U 25274N   25339.29787744  .00003489  00000+0  33972-3 0  9996", "line2": "2 66662  97.7390 266.6419 0014054 309.3021  50.6951 14.93094780  1292"}}, "geometry": {"type": "Point", "coordinates": [-92.50702473779683, 0.5290036160061509]}}, {"type": "Feature", "properties": {"norad_id": 66663, "name": "KSLV-II R/B", "group": "last-30-days", "lat": 32.855768775583535, "lon": 92.6781669353442, "alt_km": 605.4692909975874, "timestamp": "2025-12-06T05:40:08.013127+00:00", "meta": {"OBJECT_NAME": "KSLV-II R/B", "OBJECT_ID": "2025-274P", "EPOCH": "2025-12-04T19:19:56.440704", "MEAN_MOTION": 14.9720989, "ECCENTRICITY": 0.00474064, "INCLINATION": 97.74, "RA_OF_ASC_NODE": 266.2222, "ARG_OF_PERICENTER": 346.0223, "MEAN_ANOMALY": 13.9683, "EPHEMERIS_TYPE": 0, "CLASSIFICATION_TYPE": "U", "NORAD_CAT_ID": 66663, "ELEMENT_SET_NO": 999, "REV_AT_EPOCH": 122, "BSTAR": 0.00017772252, "MEAN_MOTION_DOT": 2.041e-05, "MEAN_MOTION_DDOT": 0}, "tle": {"line1": "1 66663U 25274P   25338.80551436  .00002041  00000+0  17772-3 0  9993", "line2": "2 66663  97.7400 266.2222 0047406 346.0223  13.9683 14.97209890  1223"}}, "geometry": {"type": "Point", "coordinates": [92.6781669353442, 32.855768775583535]}}, {"type": "Feature", "properties": {"norad_id": 66664, "name": "SOYUZ-MS 28", "group": "last-30-days", "lat": 51.56881711881577, "lon": -98.427262759257, "alt_km": 412.78481530790395, "timestamp": "2025-12-06T05:40:08.013137+00:00", "meta": {"OBJECT_NAME": "SOYUZ-MS 28", "OBJECT_ID": "2025-275A", "EPOCH": "2025-12-05T06:04:12.236160", "MEAN_MOTION": 15.49328184, "ECCENTRICITY": 0.00035858, "INCLINATION": 51.6297, "RA_OF_ASC_NODE": 179.5463, "ARG_OF_PERICENTER": 206.2517, "MEAN_ANOMALY": 153.8291, "EPHEMERIS_TYPE": 0, "CLASSIFICATION_TYPE": "U", "NORAD_CAT_ID": 66664, "ELEMENT_SET_NO": 999, "REV_AT_EPOCH": 128, "BSTAR": 0.0002719745, "MEAN_MOTION_DOT": 0.00014736, "MEAN_MOTION_DDOT": 0}, "tle": {"line1": "1 66664U 25275A   25339.25291940  .00014736  00000+0  27197-3 0  9992", "line2": "2 66664  51.6297 179.5463 0003585 206.2517 153.8291 15.49328184  1284"}}, "geometry": {"type": "Point", "coordinates": [-98.427262759257, 51.56881711881577]}}, {"type": "Feature", "properties": {"norad_id": 66820, "name": "KOMPSAT-7", "group": "last-30-days", "lat": -21.827013428014638, "lon": 103.16366403304535, "alt_km": 572.2004801327575, "timestamp": "2025-12-06T05:40:08.013147+00:00", "meta": {"OBJECT_NAME": "KOMPSAT-7", "OBJECT_ID": "2025-279A", "EPOCH": "2025-12-01T20:35:16.060992", "MEAN_MOTION": 14.98310631, "ECCENTRICITY": 0.00097501, "INCLINATION": 97.6394, "RA_OF_ASC_NODE": 281.9587, "ARG_OF_PERICENTER": 255.3935, "MEAN_ANOMALY": 104.6207, "EPHEMERIS_TYPE": 0, "CLASSIFICATION_TYPE": "U", "NORAD_CAT_ID": 66820, "ELEMENT_SET_NO": 999, "REV_AT_EPOCH": 2, "BSTAR": 8.4407298e-05, "MEAN_MOTION_DOT": 9.47e-06, "MEAN_MOTION_DDOT": 0}, "tle": {"line1": "1 66820U 25279A   25335.85782478  .00000947  00000+0  84407-4 0  9990", "line2": "2 66820  97.6394 281.9587 0009750 255.3935 104.6207 14.98310631    23"}}, "geometry": {"type": "Point", "coordinates": [103.16366403304535, -21.827013428014638]}}, {"type": "Feature", "properties": {"norad_id": 66877, "name": "ZQ-3 R/B", "group": "last-30-days", "lat": 3.43606368115408, "lon": -99.97203818717277, "alt_km": 228.4685897448262, "timestamp": "2025-12-06T05:40:08.013160+00:00", "meta": {"OBJECT_NAME": "ZQ-3 R/B", "OBJECT_ID": "2025-282A", "EPOCH": "2025-12-05T07:10:51.533184", "MEAN_MOTION": 14.40698574, "ECCENTRICITY": 0.08574754, "INCLINATION": 56.9554, "RA_OF_ASC_NODE": 85.7648, "ARG_OF_PERICENTER": 207.271, "MEAN_ANOMALY": 148.0712, "EPHEMERIS_TYPE": 0, "CLASSIFICATION_TYPE": "U", "NORAD_CAT_ID": 66877, "ELEMENT_SET_NO": 999, "REV_AT_EPOCH": 31, "BSTAR": 0.00029209984, "MEAN_MOTION_DOT": 0.01317241, "MEAN_MOTION_DDOT": 7.178412e-06}, "tle": {"line1": "1 66877U 25282A   25339.29920756  .01317241  71784-5  29210-3 0  9993", "line2": "2 66877  56.9554  85.7648 0857475 207.2710 148.0712 14.40698574   318"}}, "geometry": {"type": "Point", "coordinates": [-99.97203818717277, 3.43606368115408]}}]}